{
  "type": "FeatureCollection",
  "features": [
    {
      "type": "Feature",
      "properties": {
        "norad_id": 66470,
        "name": "STARLINK-35655",
        "group": "last-30-days",
        "lat": 21.338114112538506,
        "lon": 118.81026004572047,
        "alt_km": 412.43390669445307,
        "timestamp": "2025-12-08T19:31:47.635862+00:00",
        "meta_object_name": "STARLINK-35655",
        "meta_object_id": "2025-262Q",
        "meta_epoch": "2025-12-08T06:00:02.999808",
        "meta_mean_motion": 15.5056913,
        "meta_eccentricity": 0.00017125,
        "meta_inclination": 43.0006,
        "meta_ra_of_asc_node": 97.3233,
        "meta_arg_of_pericenter": 265.0254,
        "meta_mean_anomaly": 216.887,
        "meta_ephemeris_type": 0,
        "meta_classification_type": "U",
        "meta_norad_cat_id": 66470,
        "meta_element_set_no": 999,
        "meta_rev_at_epoch": 491,
        "meta_bstar": -0.00051718509,
        "meta_mean_motion_dot": -0.00030554,
        "meta_mean_motion_ddot": 0,
        "tle_line1": "1 66470U 25262Q   25342.25003472 -.00030554  00000+0 -51719-3 0  9993",
        "tle_line2": "2 66470  43.0006  97.3233 0001712 265.0254 216.8870 15.50569130  4911"
      },
      "geometry": {
        "type": "Point",
        "coordinates": [
          118.81026004572047,
          21.338114112538506
        ]
      }
    },
    {
      "type": "Feature",
      "properties": {
        "norad_id": 66471,
        "name": "STARLINK-35569",
        "group": "last-30-days",
        "lat": 22.50847116089307,
        "lon": 120.42391266306872,
        "alt_km": 412.42035480290633,
        "timestamp": "2025-12-08T19:31:47.635870+00:00",
        "meta_object_name": "STARLINK-35569",
        "meta_object_id": "2025-262R",
        "meta_epoch": "2025-12-08T06:00:02.999808",
        "meta_mean_motion": 15.50609637,
        "meta_eccentricity": 0.00015613,
        "meta_inclination": 43.0006,
        "meta_ra_of_asc_node": 97.3187,
        "meta_arg_of_pericenter": 258.1673,
        "meta_mean_anomaly": 225.6405,
        "meta_ephemeris_type": 0,
        "meta_classification_type": "U",
        "meta_norad_cat_id": 66471,
        "meta_element_set_no": 999,
        "meta_rev_at_epoch": 491,
        "meta_bstar": -0.00160223,
        "meta_mean_motion_dot": -0.00093327,
        "meta_mean_motion_ddot": 0,
        "tle_line1": "1 66471U 25262R   25342.25003472 -.00093327  00000+0 -16022-2 0  9998",
        "tle_line2": "2 66471  43.0006  97.3187 0001561 258.1673 225.6405 15.50609637  4919"
      },
      "geometry": {
        "type": "Point",
        "coordinates": [
          120.42391266306872,
          22.50847116089307
        ]
      }
    },
    {
      "type": "Feature",
      "properties": {
        "norad_id": 66472,
        "name": "STARLINK-35567",
        "group": "last-30-days",
        "lat": 24.82457170853721,
        "lon": 123.77294890397755,
        "alt_km": 411.99285444412453,
        "timestamp": "2025-12-08T19:31:47.635880+00:00",
        "meta_object_name": "STARLINK-35567",
        "meta_object_id": "2025-262S",
        "meta_epoch": "2025-12-08T06:00:02.999808",
        "meta_mean_motion": 15.50564124,
        "meta_eccentricity": 0.00017061,
        "meta_inclination": 43.0006,
        "meta_ra_of_asc_node": 97.3083,
        "meta_arg_of_pericenter": 261.5111,
        "meta_mean_anomaly": 226.1492,
        "meta_ephemeris_type": 0,
        "meta_classification_type": "U",
        "meta_norad_cat_id": 66472,
        "meta_element_set_no": 999,
        "meta_rev_at_epoch": 491,
        "meta_bstar": -0.00031621732,
        "meta_mean_motion_dot": -0.00018838,
        "meta_mean_motion_ddot": 0,
        "tle_line1": "1 66472U 25262S   25342.25003472 -.00018838  00000+0 -31622-3 0  9997",
        "tle_line2": "2 66472  43.0006  97.3083 0001706 261.5111 226.1492 15.50564124  4914"
      },
      "geometry": {
        "type": "Point",
        "coordinates": [
          123.77294890397755,
          24.82457170853721
        ]
      }
    },
    {
      "type": "Feature",
      "properties": {
        "norad_id": 66473,
        "name": "STARLINK-35568",
        "group": "last-30-days",
        "lat": 25.95028810466065,
        "lon": 125.48823963875036,
        "alt_km": 411.78849629314664,
        "timestamp": "2025-12-08T19:31:47.635889+00:00",
        "meta_object_name": "STARLINK-35568",
        "meta_object_id": "2025-262T",
        "meta_epoch": "2025-12-08T06:00:02.999808",
        "meta_mean_motion": 15.50573801,
        "meta_eccentricity": 0.00016716,
        "meta_inclination": 43.0006,
        "meta_ra_of_asc_node": 97.3035,
        "meta_arg_of_pericenter": 264.9925,
        "meta_mean_anomaly": 224.58,
        "meta_ephemeris_type": 0,
        "meta_classification_type": "U",
        "meta_norad_cat_id": 66473,
        "meta_element_set_no": 999,
        "meta_rev_at_epoch": 491,
        "meta_bstar": -0.0005392513,
        "meta_mean_motion_dot": -0.00031843,
        "meta_mean_motion_ddot": 0,
        "tle_line1": "1 66473U 25262T   25342.25003472 -.00031843  00000+0 -53925-3 0  9999",
        "tle_line2": "2 66473  43.0006  97.3035 0001671 264.9925 224.5800 15.50573801  4910"
      },
      "geometry": {
        "type": "Point",
        "coordinates": [
          125.48823963875036,
          25.95028810466065
        ]
      }
    },
    {
      "type": "Feature",
      "properties": {
        "norad_id": 66474,
        "name": "STARLINK-35620",
        "group": "last-30-days",
        "lat": 27.067625054271044,
        "lon": 127.25648961516775,
        "alt_km": 411.493183255202,
        "timestamp": "2025-12-08T19:31:47.635897+00:00",
        "meta_object_name": "STARLINK-35620",
        "meta_object_id": "2025-262U",
        "meta_epoch": "2025-12-08T06:00:02.999808",
        "meta_mean_motion": 15.50535698,
        "meta_eccentricity": 0.00016247,
        "meta_inclination": 43.0004,
        "meta_ra_of_asc_node": 97.2986,
        "meta_arg_of_pericenter": 259.7345,
        "meta_mean_anomaly": 231.7563,
        "meta_ephemeris_type": 0,
        "meta_classification_type": "U",
        "meta_norad_cat_id": 66474,
        "meta_element_set_no": 999,
        "meta_rev_at_epoch": 491,
        "meta_bstar": 0.00095110777,
        "meta_mean_motion_dot": 0.00055768,
        "meta_mean_motion_ddot": 0,
        "tle_line1": "1 66474U 25262U   25342.25003472  .00055768  00000+0  95111-3 0  9993",
        "tle_line2": "2 66474  43.0004  97.2986 0001624 259.7345 231.7563 15.50535698  4917"
      },
      "geometry": {
        "type": "Point",
        "coordinates": [
          127.25648961516775,
          27.067625054271044
        ]
      }
    },
    {
      "type": "Feature",
      "properties": {
        "norad_id": 66475,
        "name": "STARLINK-35538",
        "group": "last-30-days",
        "lat": 28.140805328451897,
        "lon": 129.02446861335332,
        "alt_km": 411.4146073385582,
        "timestamp": "2025-12-08T19:31:47.635906+00:00",
        "meta_object_name": "STARLINK-35538",
        "meta_object_id": "2025-262V",
        "meta_epoch": "2025-12-08T06:00:02.999808",
        "meta_mean_motion": 15.50556031,
        "meta_eccentricity": 0.00016771,
        "meta_inclination": 43.0005,
        "meta_ra_of_asc_node": 97.2946,
        "meta_arg_of_pericenter": 265.356,
        "meta_mean_anomaly": 228.0509,
        "meta_ephemeris_type": 0,
        "meta_classification_type": "U",
        "meta_norad_cat_id": 66475,
        "meta_element_set_no": 999,
        "meta_rev_at_epoch": 491,
        "meta_bstar": 7.3991482e-05,
        "meta_mean_motion_dot": 3.998e-05,
        "meta_mean_motion_ddot": 0,
        "tle_line1": "1 66475U 25262V   25342.25003472  .00003998  00000+0  73991-4 0  9995",
        "tle_line2": "2 66475  43.0005  97.2946 0001677 265.3560 228.0509 15.50556031  4918"
      },
      "geometry": {
        "type": "Point",
        "coordinates": [
          129.02446861335332,
          28.140805328451897
        ]
      }
    },
    {
      "type": "Feature",
      "properties": {
        "norad_id": 66476,
        "name": "STARLINK-35372",
        "group": "last-30-days",
        "lat": 29.19874806047386,
        "lon": 130.84109002013574,
        "alt_km": 411.22578892192087,
        "timestamp": "2025-12-08T19:31:47.635915+00:00",
        "meta_object_name": "STARLINK-35372",
        "meta_object_id": "2025-262W",
        "meta_epoch": "2025-12-08T06:00:02.999808",
        "meta_mean_motion": 15.50567132,
        "meta_eccentricity": 0.00016071,
        "meta_inclination": 43.0005,
        "meta_ra_of_asc_node": 97.2896,
        "meta_arg_of_pericenter": 267.6074,
        "meta_mean_anomaly": 227.7096,
        "meta_ephemeris_type": 0,
        "meta_classification_type": "U",
        "meta_norad_cat_id": 66476,
        "meta_element_set_no": 999,
        "meta_rev_at_epoch": 481,
        "meta_bstar": -0.00018771591,
        "meta_mean_motion_dot": -0.00011333,
        "meta_mean_motion_ddot": 0,
        "tle_line1": "1 66476U 25262W   25342.25003472 -.00011333  00000+0 -18772-3 0  9995",
        "tle_line2": "2 66476  43.0005  97.2896 0001607 267.6074 227.7096 15.50567132  4811"
      },
      "geometry": {
        "type": "Point",
        "coordinates": [
          130.84109002013574,
          29.19874806047386
        ]
      }
    }
  ]
}